{
    "links": {
        "self": "http://www.neowsapp.com/rest/v1/neo/3905992?api_key=iIulBulltgU6a56xZRHN4H3l9WmuAYTsLGpBGhQ2"
    },
    "id": "3905992",
    "neo_reference_id": "3905992",
    "name": "(2019 XM1)",
    "designation": "2019 XM1",
    "nasa_jpl_url": "http://ssd.jpl.nasa.gov/sbdb.cgi?sstr=3905992",
    "absolute_magnitude_h": 25.0,
    "estimated_diameter": {
        "kilometers": {
            "estimated_diameter_min": 0.02658,
            "estimated_diameter_max": 0.0594346868
        },
        "meters": {
            "estimated_diameter_min": 26.58,
            "estimated_diameter_max": 59.4346868419
        },
        "miles": {
            "estimated_diameter_min": 0.0165160412,
            "estimated_diameter_max": 0.0369309908
        },
        "feet": {
            "estimated_diameter_min": 87.2047272,
            "estimated_diameter_max": 194.9956979785
        }
    },
    "is_potentially_hazardous_asteroid": false,
    "close_approach_data": [
        {
            "close_approach_date": "2016-01-03",
            "close_approach_date_full": "2016-Jan-03 18:13",
            "epoch_date_close_approach": 1451844780000,
            "relative_velocity": {
                "kilometers_per_second": "14.6498991091",
                "kilometers_per_hour": "52739.636792747",
                "miles_per_hour": "32770.3593171377"
            },
            "miss_distance": {
                "astronomical": "0.3697915525",
                "lunar": "143.8489139225",
                "kilometers": "55320028.597993175",
                "miles": "34374271.814628815"
            },
            "orbiting_body": "Earth"
        },
        {
            "close_approach_date": "2019-12-04",
            "close_approach_date_full": "2019-Dec-04 08:04",
            "epoch_date_close_approach": 1575446640000,
            "relative_velocity": {
                "kilometers_per_second": "5.9054973728",
                "kilometers_per_hour": "21259.7905422426",
                "miles_per_hour": "13210.0070733173"
            },
            "miss_distance": {
                "astronomical": "0.1157654475",
                "lunar": "45.0327590775",
                "kilometers": "17318264.365596825",
                "miles": "10761070.479313185"
            },
            "orbiting_body": "Earth"
        },
        {
            "close_approach_date": "2023-10-23",
            "close_approach_date_full": "2023-Oct-23 05:58",
            "epoch_date_close_approach": 1698040680000,
            "relative_velocity": {
                "kilometers_per_second": "17.2550008921",
                "kilometers_per_hour": "62118.0032114394",
                "miles_per_hour": "38597.7114954636"
            },
            "miss_distance": {
                "astronomical": "0.4498966827",
                "lunar": "175.0098095703",
                "kilometers": "67303585.451985849",
                "miles": "41820508.7571047562"
            },
            "orbiting_body": "Earth"
        }
    ],
    "orbital_data": {
        "orbit_id": "6",
        "orbit_determination_date": "2020-01-06 05:39:02",
        "first_observation_date": "2019-12-03",
        "last_observation_date": "2020-01-05",
        "data_arc_in_days": 33,
        "observations_used": 26,
        "orbit_uncertainty": "7",
        "minimum_orbit_intersection": ".114354",
        "jupiter_tisserand_invariant": "3.225",
        "epoch_osculation": "2459000.5",
        "eccentricity": ".5648789312124257",
        "semi_major_axis": "2.49347567919261",
        "inclination": "4.700458673611716",
        "ascending_node_longitude": "113.7564843278997",
        "orbital_period": "1438.156444460669",
        "perihelion_distance": "1.084963802526111",
        "perihelion_argument": "316.8420620445106",
        "aphelion_distance": "3.901987555859108",
        "perihelion_time": "2458820.026320906122",
        "mean_anomaly": "45.17625653595783",
        "mean_motion": ".250320472008875",
        "equinox": "J2000",
        "orbit_class": {
            "orbit_class_type": "AMO",
            "orbit_class_description": "Near-Earth asteroid orbits similar to that of 1221 Amor",
            "orbit_class_range": "1.017 AU < q (perihelion) < 1.3 AU"
        }
    },
    "is_sentry_object": false
}